ONEWEB-0196             
1 48218U 21031J   24237.52514170  .00000023  00000+0  28616-4 0  9994
2 48218  87.8926  61.3011 0001436 110.3694 249.7590 13.14501941161301
ONEWEB-0183             
1 48219U 21031K   24237.57588187  .00000235  00000+0  59943-3 0  9990
2 48219  87.8923  61.3069 0001892  87.4402 272.6944 13.14504437161401
ONEWEB-0185             
1 48220U 21031L   24237.52593635 -.00000036  00000+0 -13277-3 0  9992
2 48220  87.8923  61.2886 0001928  88.6843 271.4507 13.14503465161324
ONEWEB-0192             
1 48222U 21031N   24237.55209510 -.00000089  00000+0 -27548-3 0  9997
2 48222  87.8921  61.3141 0001705  92.8065 267.3260 13.14503981161250
ONEWEB-0219             
1 48223U 21031P   24237.53149228 -.00000107  00000+0 -32253-3 0  9995
2 48223  87.8924  61.2922 0001931  91.0750 269.0601 13.14503350161453
ONEWEB-0202             
1 48224U 21031Q   24237.51245320  .00000209  00000+0  52943-3 0  9993
2 48224  87.8923  61.3146 0001929 116.0180 244.1148 13.14504154161435
ONEWEB-0204             
1 48225U 21031R   24237.54654806 -.00000187  00000+0 -53958-3 0  9994
2 48225  87.8922  61.3197 0001906  78.1438 281.9905 13.14503625161331
